STARLINK-4031           
1 52679U 22053Z   26068.48238555 -.00000242  00000+0  29096-5 0  9992
2 52679  53.2162 145.0520 0001337  78.6905 281.4237 15.08844203211103
YAM-8                   
1 63254U 25052AW  26068.73092778  .00007810  00000+0  47267-3 0  9993
2 63254  97.7023 329.5345 0002369 152.6796 207.4558 15.10898938 54245
